start=new Date('2022-07-03T00:00:00.000Z').valueOf();
sats=[{"OBJECT_TYPE":"PAYLOAD","PERIAPSIS":"546.283","MEAN_MOTION_DOT":"0.00000780","EPOCH":"2022-07-02T13:34:47.531424","TLE_LINE2":"2 46352  53.0561 279.6025 0001314  77.9583 282.1553 15.06406722101709","INCLINATION":"53.0561","DECAY_DATE":null,"CLASSIFICATION_TYPE":"U","REF_FRAME":"TEME","SEMIMAJOR_AXIS":"6925.328","EPHEMERIS_TYPE":"0","OBJECT_ID":"2020-062AD","TIME_SYSTEM":"UTC","SITE":"AFETR","PERIOD":"95.592","GP_ID":"207264293","COUNTRY_CODE":"US","BSTAR":"0.00007121600000","ELEMENT_SET_NO":"999","CENTER_NAME":"EARTH","ECCENTRICITY":"0.00013140","RA_OF_ASC_NODE":"279.6025","FILE":"3506647","REV_AT_EPOCH":"10170","RCS_SIZE":"LARGE","OBJECT_NAME":"STARLINK-1653","NORAD_CAT_ID":"46352","MEAN_MOTION_DDOT":"0.0000000000000","APOAPSIS":"548.103","LAUNCH_DATE":"2020-09-03","MEAN_ELEMENT_THEORY":"SGP4","MEAN_MOTION":"15.06406722","ARG_OF_PERICENTER":"77.9583","MEAN_ANOMALY":"282.1553","TLE_LINE1":"1 46352U 20062AD  22183.56582791  .00000780  00000-0  71216-4 0  9995"},{"MEAN_MOTION_DOT":"0.00000576","EPOCH":"2022-07-02T13:32:08.538144","TLE_LINE2":"2 46353  53.0553 299.6254 0001591  65.7798 294.3357 15.06399958101414","PERIAPSIS":"546.112","OBJECT_TYPE":"PAYLOAD","CLASSIFICATION_TYPE":"U","REF_FRAME":"TEME","SEMIMAJOR_AXIS":"6925.349","DECAY_DATE":null,"INCLINATION":"53.0553","SITE":"AFETR","TIME_SYSTEM":"UTC","OBJECT_ID":"2020-062AE","EPHEMERIS_TYPE":"0","GP_ID":"207265544","COUNTRY_CODE":"US","PERIOD":"95.592","BSTAR":"0.00005759900000","NORAD_CAT_ID":"46353","OBJECT_NAME":"STARLINK-1656","RCS_SIZE":"LARGE","RA_OF_ASC_NODE":"299.6254","FILE":"3506647","REV_AT_EPOCH":"10141","CENTER_NAME":"EARTH","ELEMENT_SET_NO":"999","ECCENTRICITY":"0.00015910","MEAN_MOTION":"15.06399958","MEAN_ELEMENT_THEORY":"SGP4","LAUNCH_DATE":"2020-09-03","MEAN_MOTION_DDOT":"0.0000000000000","APOAPSIS":"548.316","MEAN_ANOMALY":"294.3357","TLE_LINE1":"1 46353U 20062AE  22183.56398771  .00000576  00000-0  57599-4 0  9990","ARG_OF_PERICENTER":"65.7798"},{"PERIOD":"95.592","GP_ID":"207265295","COUNTRY_CODE":"US","TIME_SYSTEM":"UTC","SITE":"AFETR","EPHEMERIS_TYPE":"0","OBJECT_ID":"2020-062AF","SEMIMAJOR_AXIS":"6925.325","REF_FRAME":"TEME","CLASSIFICATION_TYPE":"U","INCLINATION":"53.0559","DECAY_DATE":null,"PERIAPSIS":"546.105","TLE_LINE2":"2 46354  53.0559 299.6530 0001568  58.0388 302.0753 15.06407538101413","MEAN_MOTION_DOT":"0.00000224","EPOCH":"2022-07-02T13:16:12.436608","OBJECT_TYPE":"PAYLOAD","ARG_OF_PERICENTER":"58.0388","TLE_LINE1":"1 46354U 20062AF  22183.55292172  .00000224  00000-0  33913-4 0  9992","MEAN_ANOMALY":"302.0753","MEAN_ELEMENT_THEORY":"SGP4","LAUNCH_DATE":"2020-09-03","MEAN_MOTION":"15.06407538","APOAPSIS":"548.276","MEAN_MOTION_DDOT":"0.0000000000000","RCS_SIZE":"LARGE","NORAD_CAT_ID":"46354","OBJECT_NAME":"STARLINK-1657","CENTER_NAME":"EARTH","ELEMENT_SET_NO":"999","ECCENTRICITY":"0.00015680","FILE":"3506647","RA_OF_ASC_NODE":"299.6530","REV_AT_EPOCH":"10141","BSTAR":"0.00003391300000"},{"BSTAR":"0.00013147000000","REV_AT_EPOCH":"10159","FILE":"3506552","RA_OF_ASC_NODE":"299.7859","ECCENTRICITY":"0.00013780","ELEMENT_SET_NO":"999","CENTER_NAME":"EARTH","OBJECT_NAME":"STARLINK-1661","NORAD_CAT_ID":"46355","RCS_SIZE":"LARGE","MEAN_MOTION_DDOT":"0.0000000000000","APOAPSIS":"548.146","MEAN_MOTION":"15.06407239","LAUNCH_DATE":"2020-09-03","MEAN_ELEMENT_THEORY":"SGP4","TLE_LINE1":"1 46355U 20062AG  22183.52712321  .00001678  00000-0  13147-3 0  9993","MEAN_ANOMALY":"280.8474","ARG_OF_PERICENTER":"79.2671","OBJECT_TYPE":"PAYLOAD","TLE_LINE2":"2 46355  53.0564 299.7859 0001378  79.2671 280.8474 15.06407239101594","MEAN_MOTION_DOT":"0.00001678","EPOCH":"2022-07-02T12:39:03.445344","PERIAPSIS":"546.237","DECAY_DATE":null,"INCLINATION":"53.0564","SEMIMAJOR_AXIS":"6925.326","REF_FRAME":"TEME","CLASSIFICATION_TYPE":"U","EPHEMERIS_TYPE":"0","OBJECT_ID":"2020-062AG","SITE":"AFETR","TIME_SYSTEM":"UTC","COUNTRY_CODE":"US","GP_ID":"207242836","PERIOD":"95.592"},{"PERIOD":"95.592","COUNTRY_CODE":"US","GP_ID":"207264793","OBJECT_ID":"2020-062AH","EPHEMERIS_TYPE":"0","TIME_SYSTEM":"UTC","SITE":"AFETR","INCLINATION":"53.0573","DECAY_DATE":null,"SEMIMAJOR_AXIS":"6925.364","CLASSIFICATION_TYPE":"U","REF_FRAME":"TEME","OBJECT_TYPE":"PAYLOAD","PERIAPSIS":"546.216","TLE_LINE2":"2 46356  53.0573 299.4225 0001463  77.7999 282.3154 15.06394862101421","MEAN_MOTION_DOT":"0.00000255","EPOCH":"2022-07-02T14:29:09.573792","ARG_OF_PERICENTER":"77.7999","TLE_LINE1":"1 46356U 20062AH  22183.60358303  .00000255  00000-0  36047-4 0  9994","MEAN_ANOMALY":"282.3154","MEAN_MOTION_DDOT":"0.0000000000000","APOAPSIS":"548.242","MEAN_ELEMENT_THEORY":"SGP4","LAUNCH_DATE":"2020-09-03","MEAN_MOTION":"15.06394862","ELEMENT_SET_NO":"999","CENTER_NAME":"EARTH","ECCENTRICITY":"0.00014630","REV_AT_EPOCH":"10142","FILE":"3506647","RA_OF_ASC_NODE":"299.4225","RCS_SIZE":"LARGE","NORAD_CAT_ID":"46356","OBJECT_NAME":"STARLINK-1665","BSTAR":"0.00003604700000"},{"OBJECT_TYPE":"PAYLOAD","PERIAPSIS":"546.130","MEAN_MOTION_DOT":"0.00001419","EPOCH":"2022-07-02T12:52:19.912512","TLE_LINE2":"2 46357  53.0545 279.7278 0001545  66.7190 293.3961 15.06404479101875","INCLINATION":"53.0545","DECAY_DATE":null,"REF_FRAME":"TEME","CLASSIFICATION_TYPE":"U","SEMIMAJOR_AXIS":"6925.335","EPHEMERIS_TYPE":"0","OBJECT_ID":"2020-062AJ","TIME_SYSTEM":"UTC","SITE":"AFETR","PERIOD":"95.592","COUNTRY_CODE":"US","GP_ID":"207242879","BSTAR":"0.00011414000000","ELEMENT_SET_NO":"999","CENTER_NAME":"EARTH","ECCENTRICITY":"0.00015450","REV_AT_EPOCH":"10187","FILE":"3506555","RA_OF_ASC_NODE":"279.7278","RCS_SIZE":"LARGE","OBJECT_NAME":"STARLINK-1666","NORAD_CAT_ID":"46357","APOAPSIS":"548.270","MEAN_MOTION_DDOT":"0.0000000000000","LAUNCH_DATE":"2020-09-03","MEAN_ELEMENT_THEORY":"SGP4","MEAN_MOTION":"15.06404479","ARG_OF_PERICENTER":"66.7190","MEAN_ANOMALY":"293.3961","TLE_LINE1":"1 46357U 20062AJ  22183.53634158  .00001419  00000-0  11414-3 0  9995"},{"APOAPSIS":"548.482","MEAN_MOTION_DDOT":"0.0000000000000","MEAN_ELEMENT_THEORY":"SGP4","LAUNCH_DATE":"2020-09-03","MEAN_MOTION":"15.06405856","ARG_OF_PERICENTER":"52.7356","MEAN_ANOMALY":"307.3802","TLE_LINE1":"1 46358U 20062AK  22183.58241168  .00000224  00000-0  33932-4 0  9999","BSTAR":"0.00003393200000","CENTER_NAME":"EARTH","ELEMENT_SET_NO":"999","ECCENTRICITY":"0.00018580","REV_AT_EPOCH":"10142","FILE":"3506647","RA_OF_ASC_NODE":"299.5231","RCS_SIZE":"LARGE","OBJECT_NAME":"STARLINK-1690","NORAD_CAT_ID":"46358","OBJECT_ID":"2020-062AK","EPHEMERIS_TYPE":"0","TIME_SYSTEM":"UTC","SITE":"AFETR","PERIOD":"95.592","COUNTRY_CODE":"US","GP_ID":"207265795","OBJECT_TYPE":"PAYLOAD","PERIAPSIS":"545.909","MEAN_MOTION_DOT":"0.00000224","EPOCH":"2022-07-02T13:58:40.369152","TLE_LINE2":"2 46358  53.0574 299.5231 0001858  52.7356 307.3802 15.06405856101424","INCLINATION":"53.0574","DECAY_DATE":null,"CLASSIFICATION_TYPE":"U","REF_FRAME":"TEME","SEMIMAJOR_AXIS":"6925.331"},{"APOAPSIS":"548.327","MEAN_MOTION_DDOT":"0.0000000000000","MEAN_ELEMENT_THEORY":"SGP4","LAUNCH_DATE":"2020-09-03","MEAN_MOTION":"15.06402677","ARG_OF_PERICENTER":"53.2644","TLE_LINE1":"1 46359U 20062AL  22183.49624558  .00001452  00000-0  11635-3 0  9997","MEAN_ANOMALY":"306.8494","BSTAR":"0.00011635000000","ELEMENT_SET_NO":"999","ECCENTRICITY":"0.00016190","CENTER_NAME":"EARTH","REV_AT_EPOCH":"10221","FILE":"3506647","RA_OF_ASC_NODE":"254.9288","RCS_SIZE":"LARGE","NORAD_CAT_ID":"46359","OBJECT_NAME":"STARLINK-1707","EPHEMERIS_TYPE":"0","OBJECT_ID":"2020-062AL","TIME_SYSTEM":"UTC","SITE":"AFETR","PERIOD":"95.592","GP_ID":"207264543","COUNTRY_CODE":"US","OBJECT_TYPE":"PAYLOAD","PERIAPSIS":"546.084","TLE_LINE2":"2 46359  53.0551 254.9288 0001619  53.2644 306.8494 15.06402677102215","MEAN_MOTION_DOT":"0.00001452","EPOCH":"2022-07-02T11:54:35.618112","INCLINATION":"53.0551","DECAY_DATE":null,"SEMIMAJOR_AXIS":"6925.340","REF_FRAME":"TEME","CLASSIFICATION_TYPE":"U"},{"SEMIMAJOR_AXIS":"6925.337","REF_FRAME":"TEME","CLASSIFICATION_TYPE":"U","DECAY_DATE":null,"INCLINATION":"53.0547","TLE_LINE2":"2 46360  53.0547 254.8270 0001510  66.1457 293.9691 15.06403750102226","EPOCH":"2022-07-02T12:26:26.827584","MEAN_MOTION_DOT":"-0.00000162","PERIAPSIS":"546.156","OBJECT_TYPE":"PAYLOAD","COUNTRY_CODE":"US","GP_ID":"207264294","PERIOD":"95.592","SITE":"AFETR","TIME_SYSTEM":"UTC","EPHEMERIS_TYPE":"0","OBJECT_ID":"2020-062AM","NORAD_CAT_ID":"46360","OBJECT_NAME":"STARLINK-1713","RCS_SIZE":"LARGE","REV_AT_EPOCH":"10222","FILE":"3506647","RA_OF_ASC_NODE":"254.8270","ELEMENT_SET_NO":"999","CENTER_NAME":"EARTH","ECCENTRICITY":"0.00015100","BSTAR":"0.00000800390000","TLE_LINE1":"1 46360U 20062AM  22183.51836606 -.00000162  00000-0  80039-5 0  9995","MEAN_ANOMALY":"293.9691","ARG_OF_PERICENTER":"66.1457","MEAN_MOTION":"15.06403750","LAUNCH_DATE":"2020-09-03","MEAN_ELEMENT_THEORY":"SGP4","MEAN_MOTION_DDOT":"0.0000000000000","APOAPSIS":"548.248"},{"EPHEMERIS_TYPE":"0","OBJECT_ID":"2020-062AN","TIME_SYSTEM":"UTC","SITE":"AFETR","PERIOD":"95.592","COUNTRY_CODE":"US","GP_ID":"207271129","OBJECT_TYPE":"PAYLOAD","PERIAPSIS":"546.392","TLE_LINE2":"2 46361  53.0533 254.3464 0001207  75.8988 284.2135 15.06395266102229","MEAN_MOTION_DOT":"-0.00000368","EPOCH":"2022-07-02T14:53:42.501120","INCLINATION":"53.0533","DECAY_DATE":null,"SEMIMAJOR_AXIS":"6925.363","CLASSIFICATION_TYPE":"U","REF_FRAME":"TEME","MEAN_MOTION_DDOT":"0.0000000000000","APOAPSIS":"548.064","MEAN_ELEMENT_THEORY":"SGP4","LAUNCH_DATE":"2020-09-03","MEAN_MOTION":"15.06395266","ARG_OF_PERICENTER":"75.8988","TLE_LINE1":"1 46361U 20062AN  22183.62063080 -.00000368  00000-0 -58478-5 0  9997","MEAN_ANOMALY":"284.2135","BSTAR":"-0.00000584780000","CENTER_NAME":"EARTH","ELEMENT_SET_NO":"999","ECCENTRICITY":"0.00012070","REV_AT_EPOCH":"10222","FILE":"3506674","RA_OF_ASC_NODE":"254.3464","RCS_SIZE":"LARGE","OBJECT_NAME":"STARLINK-1722","NORAD_CAT_ID":"46361"}];
